[{"OBJECT_NAME":"STARLINK-4648","OBJECT_ID":"2022-104Q","EPOCH":"2026-03-09T17:46:14.002176","MEAN_MOTION":15.08840128,"ECCENTRICITY":0.0001195,"INCLINATION":53.2169,"RA_OF_ASC_NODE":238.8318,"ARG_OF_PERICENTER":86.9618,"MEAN_ANOMALY":273.1511,"EPHEMERIS_TYPE":0,"CLASSIFICATION_TYPE":"U","NORAD_CAT_ID":53602,"ELEMENT_SET_NO":999,"REV_AT_EPOCH":19569,"BSTAR":-9.410075e-6,"MEAN_MOTION_DOT":-4.38e-6,"MEAN_MOTION_DDOT":0},{"OBJECT_NAME":"H-2A R\/B","OBJECT_ID":"2009-002J","EPOCH":"2026-03-09T23:38:52.170720","MEAN_MOTION":15.01829324,"ECCENTRICITY":0.00333022,"INCLINATION":98.2328,"RA_OF_ASC_NODE":87.9691,"ARG_OF_PERICENTER":111.7239,"MEAN_ANOMALY":248.7534,"EPHEMERIS_TYPE":0,"CLASSIFICATION_TYPE":"U","NORAD_CAT_ID":33500,"ELEMENT_SET_NO":999,"REV_AT_EPOCH":92943,"BSTAR":0.00033449169,"MEAN_MOTION_DOT":4.347e-5,"MEAN_MOTION_DDOT":0}]
